{
  "links" : {
    "next" : "https://api.nasa.gov/neo/rest/v1/feed?start_date=2015-01-09&end_date=2015-01-09&detailed=true&api_key=t0TVs3DtDT2H8Oy2Zy8m2eVrNsAVKAexjcZXUckd",
    "prev" : "https://api.nasa.gov/neo/rest/v1/feed?start_date=2015-01-07&end_date=2015-01-07&detailed=true&api_key=t0TVs3DtDT2H8Oy2Zy8m2eVrNsAVKAexjcZXUckd",
    "self" : "https://api.nasa.gov/neo/rest/v1/feed?start_date=2015-01-08&end_date=2015-01-08&detailed=true&api_key=t0TVs3DtDT2H8Oy2Zy8m2eVrNsAVKAexjcZXUckd"
  },
  "element_count" : 8,
  "near_earth_objects" : {
    "2015-01-08" : [ {
      "links" : {
        "self" : "https://api.nasa.gov/neo/rest/v1/neo/3545630?api_key=t0TVs3DtDT2H8Oy2Zy8m2eVrNsAVKAexjcZXUckd"
      },
      "neo_reference_id" : "3545630",
      "name" : "(2010 RE31)",
      "nasa_jpl_url" : "http://ssd.jpl.nasa.gov/sbdb.cgi?sstr=3545630",
      "absolute_magnitude_h" : 25.9,
      "estimated_diameter" : {
        "kilometers" : {
          "estimated_diameter_min" : 0.0175612318,
          "estimated_diameter_max" : 0.0392681082
        },
        "meters" : {
          "estimated_diameter_min" : 17.561231848,
          "estimated_diameter_max" : 39.2681081809
        },
        "miles" : {
          "estimated_diameter_min" : 0.0109120402,
          "estimated_diameter_max" : 0.0244000636
        },
        "feet" : {
          "estimated_diameter_min" : 57.6155918963,
          "estimated_diameter_max" : 128.8323800441
        }
      },
      "is_potentially_hazardous_asteroid" : false,
      "close_approach_data" : [ {
        "close_approach_date" : "2015-01-08",
        "epoch_date_close_approach" : 1420704000000,
        "relative_velocity" : {
          "kilometers_per_second" : "12.2993879144",
          "kilometers_per_hour" : "44277.7964916992",
          "miles_per_hour" : "27512.5008256339"
        },
        "miss_distance" : {
          "astronomical" : "0.1162373827",
          "lunar" : "45.2163391113",
          "kilometers" : "17388864",
          "miles" : "10804940"
        },
        "orbiting_body" : "Earth"
      } ],
      "orbital_data" : {
        "orbit_id" : "7",
        "orbit_determination_date" : "2017-04-06 08:56:49",
        "orbit_uncertainty" : "7",
        "minimum_orbit_intersection" : ".0145853",
        "jupiter_tisserand_invariant" : "6.183",
        "epoch_osculation" : "2458000.5",
        "eccentricity" : ".3247300856361793",
        "semi_major_axis" : ".9684096044102642",
        "inclination" : "7.132282125956226",
        "ascending_node_longitude" : "340.5627602166311",
        "orbital_period" : "348.0864027805326",
        "perihelion_distance" : ".6539378706392206",
        "perihelion_argument" : "236.8916851764026",
        "aphelion_distance" : "1.282881338181308",
        "perihelion_time" : "2458141.438216808965",
        "mean_anomaly" : "214.238035022536",
        "mean_motion" : "1.03422597701117",
        "equinox" : "J2000"
      }
    }, {
      "links" : {
        "self" : "https://api.nasa.gov/neo/rest/v1/neo/3595776?api_key=t0TVs3DtDT2H8Oy2Zy8m2eVrNsAVKAexjcZXUckd"
      },
      "neo_reference_id" : "3595776",
      "name" : "(2012 AC11)",
      "nasa_jpl_url" : "http://ssd.jpl.nasa.gov/sbdb.cgi?sstr=3595776",
      "absolute_magnitude_h" : 22.2,
      "estimated_diameter" : {
        "kilometers" : {
          "estimated_diameter_min" : 0.096506147,
          "estimated_diameter_max" : 0.2157943048
        },
        "meters" : {
          "estimated_diameter_min" : 96.5061469579,
          "estimated_diameter_max" : 215.7943048444
        },
        "miles" : {
          "estimated_diameter_min" : 0.059966121,
          "estimated_diameter_max" : 0.134088323
        },
        "feet" : {
          "estimated_diameter_min" : 316.6212271853,
          "estimated_diameter_max" : 707.9865871058
        }
      },
      "is_potentially_hazardous_asteroid" : false,
      "close_approach_data" : [ {
        "close_approach_date" : "2015-01-08",
        "epoch_date_close_approach" : 1420704000000,
        "relative_velocity" : {
          "kilometers_per_second" : "10.8172111645",
          "kilometers_per_hour" : "38941.9601923372",
          "miles_per_hour" : "24197.0196539553"
        },
        "miss_distance" : {
          "astronomical" : "0.3446666209",
          "lunar" : "134.0753173828",
          "kilometers" : "51561396",
          "miles" : "32038766"
        },
        "orbiting_body" : "Earth"
      } ],
      "orbital_data" : {
        "orbit_id" : "10",
        "orbit_determination_date" : "2017-04-06 08:51:28",
        "orbit_uncertainty" : "6",
        "minimum_orbit_intersection" : ".24868",
        "jupiter_tisserand_invariant" : "4.871",
        "epoch_osculation" : "2458000.5",
        "eccentricity" : ".0709058552490998",
        "semi_major_axis" : "1.3236901412421",
        "inclination" : "20.83867961300723",
        "ascending_node_longitude" : "302.4760455400967",
        "orbital_period" : "556.2601240123006",
        "perihelion_distance" : "1.229832759692527",
        "perihelion_argument" : "192.756600141034",
        "aphelion_distance" : "1.417547522791672",
        "perihelion_time" : "2458193.334803537597",
        "mean_anomaly" : "235.2013198918429",
        "mean_motion" : ".6471792322687493",
        "equinox" : "J2000"
      }
    }, {
      "links" : {
        "self" : "https://api.nasa.gov/neo/rest/v1/neo/3623682?api_key=t0TVs3DtDT2H8Oy2Zy8m2eVrNsAVKAexjcZXUckd"
      },
      "neo_reference_id" : "3623682",
      "name" : "(2013 AF53)",
      "nasa_jpl_url" : "http://ssd.jpl.nasa.gov/sbdb.cgi?sstr=3623682",
      "absolute_magnitude_h" : 26.5,
      "estimated_diameter" : {
        "kilometers" : {
          "estimated_diameter_min" : 0.0133215567,
          "estimated_diameter_max" : 0.0297879063
        },
        "meters" : {
          "estimated_diameter_min" : 13.3215566698,
          "estimated_diameter_max" : 29.7879062798
        },
        "miles" : {
          "estimated_diameter_min" : 0.008277629,
          "estimated_diameter_max" : 0.0185093411
        },
        "feet" : {
          "estimated_diameter_min" : 43.7058959846,
          "estimated_diameter_max" : 97.7293544391
        }
      },
      "is_potentially_hazardous_asteroid" : false,
      "close_approach_data" : [ {
        "close_approach_date" : "2015-01-08",
        "epoch_date_close_approach" : 1420704000000,
        "relative_velocity" : {
          "kilometers_per_second" : "11.6054209063",
          "kilometers_per_hour" : "41779.5152625878",
          "miles_per_hour" : "25960.1660252452"
        },
        "miss_distance" : {
          "astronomical" : "0.1175184752",
          "lunar" : "45.7146873474",
          "kilometers" : "17580514",
          "miles" : "10924025"
        },
        "orbiting_body" : "Earth"
      } ],
      "orbital_data" : {
        "orbit_id" : "7",
        "orbit_determination_date" : "2017-04-06 08:47:19",
        "orbit_uncertainty" : "7",
        "minimum_orbit_intersection" : ".0200872",
        "jupiter_tisserand_invariant" : "6.076",
        "epoch_osculation" : "2458000.5",
        "eccentricity" : ".1944668036041747",
        "semi_major_axis" : ".9928418174587027",
        "inclination" : "12.93289524955619",
        "ascending_node_longitude" : "107.308006136735",
        "orbital_period" : "361.342061746365",
        "perihelion_distance" : ".7997670427329493",
        "perihelion_argument" : "105.9025698631637",
        "aphelion_distance" : "1.185916592184456",
        "perihelion_time" : "2457830.558526909266",
        "mean_anomaly" : "169.3102929035901",
        "mean_motion" : ".9962858966933469",
        "equinox" : "J2000"
      }
    } ]
  }
}